STARLINK-31956          
1 59930U 24106J   26067.18859722  .00004487  00000+0  17240-3 0  9991
2 59930  43.0006 340.9670 0000902 260.5874  99.4876 15.27591276100293
REAL                    
1 64875U 25154G   26068.72233414  .00022901  00000+0  82904-3 0  9994
2 64875  97.4133 137.2581 0001853 118.5876 241.5550 15.28408058 34830
